     2.10           G: GLONASS NAV DATA                     RINEX VERSION / TYPE
teqc  2015Jun23                         20220412 01:33:07UTCPGM / RUN BY / DATE
Linux 2.4.21-27.ELsmp|Opteron|gcc -static|Linux x86_64|=+   COMMENT
  2022     3    26   -9.313225746155D-10                    CORR TO SYSTEM TIME
                                                            END OF HEADER
 7 22  3 27 21 45  0.0 3.316812217236D-05 0.000000000000D+00 7.740000000000D+04
   -6.918889648438D+03-2.428784370422D+00 0.000000000000D+00 0.000000000000D+00
    1.407863476562D+04 1.290096282959D+00-9.313225746155D-10 5.000000000000D+00
    2.014245898438D+04-1.743882179260D+00-2.793967723846D-09 0.000000000000D+00
 6 22  3 27 21 45  0.0-3.993511199951D-05-1.818989403546D-12 7.740000000000D+04
   -2.006227929688D+04-7.484378814697D-01-2.793967723846D-09 0.000000000000D+00
    1.423355126953D+04 5.514059066772D-01-9.313225746155D-10-4.000000000000D+00
    6.707036621094D+03-3.408719062805D+00-2.793967723846D-09 0.000000000000D+00
 9 22  3 27 21 45  0.0 4.665087908506D-05 2.728484105319D-12 7.740000000000D+04
   -8.976410644531D+03 1.767597198486D-01 0.000000000000D+00 0.000000000000D+00
    1.716926269531D+04-2.266369819641D+00-1.862645149231D-09-2.000000000000D+00
    1.664602929688D+04 2.428013801575D+00-2.793967723846D-09 0.000000000000D+00
10 22  3 27 21 45  0.0-8.101388812065D-05-0.000000000000D+00 7.740000000000D+04
   -2.283566894531D+03 1.601476669312D-01-0.000000000000D+00 0.000000000000D+00
    2.526292236328D+04-3.056602478027D-01-1.862645149231D-09-7.000000000000D+00
    2.267398437500D+03 3.553235054016D+00-9.313225746155D-10 0.000000000000D+00
22 22  3 27 21 45  0.0-1.732539385557D-04-9.094947017729D-13 7.740000000000D+04
    1.817969824219D+04-6.675643920898D-01 1.862645149231D-09 0.000000000000D+00
    1.647203808594D+04-7.618818283081D-01-9.313225746155D-10-3.000000000000D+00
   -7.196612304688D+03-3.427289962769D+00 1.862645149231D-09 0.000000000000D+00
 7 22  3 27 22 15  0.0 3.316905349493D-05 0.000000000000D+00 7.920000000000D+04
   -1.072734228516D+04-1.779501914978D+00-9.313225746155D-10 0.000000000000D+00
    1.647722460938D+04 1.332891464233D+00-9.313225746155D-10 5.000000000000D+00
    1.626699560547D+04-2.534481048584D+00-2.793967723846D-09 0.000000000000D+00
21 22  3 27 22 15  0.0-2.887053415179D-04-2.728484105319D-12 7.920000000000D+04
    1.322618652344D+03-2.728013992310D+00-1.862645149231D-09 0.000000000000D+00
    1.197073535156D+04-1.437977790833D+00-0.000000000000D+00 4.000000000000D+00
   -2.248403906250D+04-9.276151657104D-01 1.862645149231D-09 0.000000000000D+00
 6 22  3 27 22 15  0.0-3.993883728981D-05-1.818989403546D-12 7.920000000000D+04
   -2.068752441406D+04 3.959369659424D-02-3.725290298462D-09 0.000000000000D+00
    1.489876855469D+04 1.493921279907D-01-0.000000000000D+00-4.000000000000D+00
    3.910512695312D+02-3.563403129578D+00-2.793967723846D-09 0.000000000000D+00
 9 22  3 27 22 15  0.0 4.665553569794D-05 2.728484105319D-12 7.920000000000D+04
   -8.969323730469D+03-1.909141540527D-01-0.000000000000D+00 0.000000000000D+00
    1.260050585938D+04-2.768410682678D+00-9.313225746155D-10-2.000000000000D+00
    2.031918554688D+04 1.626773834229D+00-2.793967723846D-09 0.000000000000D+00
10 22  3 27 22 15  0.0-8.101481944323D-05-0.000000000000D+00 7.920000000000D+04
   -2.070450195312D+03 3.732299804688D-02-0.000000000000D+00 0.000000000000D+00
    2.391940625000D+04-1.174146652222D+00-1.862645149231D-09-7.000000000000D+00
    8.492070312500D+03 3.317928314209D+00-1.862645149231D-09 0.000000000000D+00
22 22  3 27 22 15  0.0-1.732567325234D-04-9.094947017729D-13 7.920000000000D+04
    1.624348339844D+04-1.483629226685D+00 9.313225746155D-10 0.000000000000D+00
    1.484304931641D+04-1.003246307373D+00-9.313225746155D-10-3.000000000000D+00
   -1.301014257812D+04-2.990490913391D+00 1.862645149231D-09 0.000000000000D+00
 7 22  3 27 22 45  0.0 3.316998481750D-05 0.000000000000D+00 8.100000000000D+04
   -1.327401025391D+04-1.045409202576D+00-1.862645149231D-09 0.000000000000D+00
    1.871748730469D+04 1.111278533936D+00-9.313225746155D-10 5.000000000000D+00
    1.113541308594D+04-3.130428314209D+00-2.793967723846D-09 0.000000000000D+00
21 22  3 27 22 45  0.0-2.887099981308D-04-2.728484105319D-12 8.100000000000D+04
   -3.888139648438D+03-3.015007019043D+00-2.793967723846D-09 0.000000000000D+00
    9.717010742188D+03-1.040872573853D+00 9.313225746155D-10 4.000000000000D+00
   -2.326307177734D+04 6.758880615234D-02 9.313225746155D-10 0.000000000000D+00
 6 22  3 27 22 45  0.0-3.994256258011D-05-1.818989403546D-12 8.100000000000D+04
   -2.000122998047D+04 6.926727294922D-01-4.656612873077D-09 0.000000000000D+00
    1.465105517578D+04-4.518795013428D-01 9.313225746155D-10-4.000000000000D+00
   -5.955230957031D+03-3.442172050476D+00-1.862645149231D-09 0.000000000000D+00
10 22  3 27 22 45  0.0-8.101668208838D-05-0.000000000000D+00 8.100000000000D+04
   -2.278499023438D+03-2.996215820312D-01-0.000000000000D+00 0.000000000000D+00
    2.111593164062D+04-1.910113334656D+00-1.862645149231D-09-7.000000000000D+00
    1.405689257812D+04 2.824894905090D+00-1.862645149231D-09 0.000000000000D+00
22 22  3 27 22 45  0.0-1.732604578137D-04-9.094947017729D-13 8.103000000000D+04
    1.287499902344D+04-2.239281654358D+00-0.000000000000D+00 0.000000000000D+00
    1.302176806641D+04-9.771547317505D-01-0.000000000000D+00-3.000000000000D+00
   -1.782395507812D+04-2.323573112488D+00 1.862645149231D-09 0.000000000000D+00
 8 22  3 27 22 45  0.0-6.427615880966D-05 0.000000000000D+00 8.103000000000D+04
    5.534111328125D+02-2.195148468018D+00 0.000000000000D+00 0.000000000000D+00
    1.329389550781D+04 2.004321098328D+00-1.862645149231D-09 6.000000000000D+00
    2.181932128906D+04-1.170955657959D+00-2.793967723846D-09 0.000000000000D+00
12 22  3 27 22 45  0.0 1.762155443430D-05-0.000000000000D+00 8.208000000000D+04
    1.182826464844D+04 6.162862777710D-01-0.000000000000D+00 0.000000000000D+00
    1.215295117188D+04 2.537887573242D+00-0.000000000000D+00-1.000000000000D+00
   -1.902581152344D+04 2.003979682922D+00 1.862645149231D-09 0.000000000000D+00
 7 22  3 27 23 15  0.0 3.316998481750D-05 0.000000000000D+00 8.280000000000D+04
   -1.450801855469D+04-3.396921157837D-01-3.725290298462D-09 0.000000000000D+00
    2.032166699219D+04 6.309175491333D-01 0.000000000000D+00 5.000000000000D+00
    5.142653808594D+03-3.484997749329D+00-2.793967723846D-09 0.000000000000D+00
10 22  3 27 23 15  0.0-8.101854473352D-05-0.000000000000D+00 8.280000000000D+04
   -3.237498535156D+03-7.829427719116D-01-0.000000000000D+00 0.000000000000D+00
    1.717890039062D+04-2.420792579651D+00-9.313225746155D-10-7.000000000000D+00
    1.852991455078D+04 2.112809181213D+00-2.793967723846D-09 0.000000000000D+00
 6 22  3 27 23 15  0.0-3.994721919298D-05-1.818989403546D-12 8.280000000000D+04
   -1.832451416016D+04 1.129366874695D+00-4.656612873077D-09 0.000000000000D+00
    1.320176025391D+04-1.169424057007D+00 1.862645149231D-09-4.000000000000D+00
   -1.184050097656D+04-3.054526329041D+00-9.313225746155D-10 0.000000000000D+00
 8 22  3 27 23 15  0.0-6.427522748709D-05 0.000000000000D+00 8.280000000000D+04
   -2.898527832031D+03-1.621139526367D+00-0.000000000000D+00 0.000000000000D+00
    1.694104980469D+04 2.002375602722D+00-9.313225746155D-10 6.000000000000D+00
    1.889972070312D+04-2.052277565002D+00-2.793967723846D-09 0.000000000000D+00
12 22  3 27 23 15  0.0 1.762155443430D-05-0.000000000000D+00 8.280000000000D+04
    1.311644042969D+04 7.783994674683D-01-0.000000000000D+00 0.000000000000D+00
    1.614578613281D+04 1.868969917297D+00-9.313225746155D-10-1.000000000000D+00
   -1.472808447266D+04 2.740186691284D+00 9.313225746155D-10 0.000000000000D+00
 7 22  3 27 23 45  0.0 3.317091614008D-05 0.000000000000D+00 8.460000000000D+04
   -1.457711035156D+04 2.332258224487D-01-3.725290298462D-09 0.000000000000D+00
    2.086297949219D+04-5.786323547363D-02 9.313225746155D-10 5.000000000000D+00
   -1.248372070312D+03-3.569929122925D+00-1.862645149231D-09 0.000000000000D+00
10 22  3 27 23 45  0.0-8.101947605610D-05-0.000000000000D+00 8.460000000000D+04
   -5.127344238281D+03-1.316269874573D+00-0.000000000000D+00 0.000000000000D+00
    1.257139892578D+04-2.649119377136D+00-9.313225746155D-10-7.000000000000D+00
    2.156480029297D+04 1.237469673157D+00-2.793967723846D-09 0.000000000000D+00
 6 22  3 27 23 45  0.0-3.995094448328D-05-1.818989403546D-12 8.460000000000D+04
   -1.609218017578D+04 1.306464195251D+00-3.725290298462D-09 0.000000000000D+00
    1.043510205078D+04-1.896810531616D+00 2.793967723846D-09-4.000000000000D+00
   -1.680943066406D+04-2.430671691895D+00 0.000000000000D+00 0.000000000000D+00
 8 22  3 27 23 45  0.0-6.427522748709D-05 0.000000000000D+00 8.460000000000D+04
   -5.246425292969D+03-9.868822097778D-01-1.862645149231D-09 0.000000000000D+00
    2.033276611328D+04 1.719164848328D+00-0.000000000000D+00 6.000000000000D+00
    1.452543945312D+04-2.776791572571D+00-2.793967723846D-09 0.000000000000D+00
12 22  3 27 23 45  0.0 1.762062311172D-05-0.000000000000D+00 8.460000000000D+04
    1.448543847656D+04 7.001829147339D-01-9.313225746155D-10 0.000000000000D+00
    1.880612841797D+04 1.075428962708D+00-9.313225746155D-10-1.000000000000D+00
   -9.288933593750D+03 3.263962745667D+00 0.000000000000D+00 0.000000000000D+00
21 22  3 27 23 45  0.0-2.887211740017D-04-2.728484105319D-12 8.532000000000D+04
   -1.450545263672D+04-2.676538467407D+00-3.725290298462D-09 0.000000000000D+00
    7.749832519531D+03-5.970191955566D-02 2.793967723846D-09 4.000000000000D+00
   -1.950613916016D+04 1.965060234070D+00 0.000000000000D+00 0.000000000000D+00
